[{"OBJECT_NAME":"ONEWEB-0680","OBJECT_ID":"2023-068G","EPOCH":"2026-01-03T07:20:03.293952","MEAN_MOTION":13.21826192,"ECCENTRICITY":0.00014917,"INCLINATION":87.923,"RA_OF_ASC_NODE":276.8495,"ARG_OF_PERICENTER":97.229,"MEAN_ANOMALY":262.9014,"EPHEMERIS_TYPE":0,"CLASSIFICATION_TYPE":"U","NORAD_CAT_ID":56716,"ELEMENT_SET_NO":999,"REV_AT_EPOCH":12931,"BSTAR":-0.00013038824,"MEAN_MOTION_DOT":-4.1e-7,"MEAN_MOTION_DDOT":0},{"OBJECT_NAME":"ONEWEB-0681","OBJECT_ID":"2023-068H","EPOCH":"2026-01-03T06:50:26.629152","MEAN_MOTION":13.21827715,"ECCENTRICITY":0.000266,"INCLINATION":87.9222,"RA_OF_ASC_NODE":276.8677,"ARG_OF_PERICENTER":75.7774,"MEAN_ANOMALY":284.3655,"EPHEMERIS_TYPE":0,"CLASSIFICATION_TYPE":"U","NORAD_CAT_ID":56717,"ELEMENT_SET_NO":999,"REV_AT_EPOCH":12930,"BSTAR":8.2525529e-5,"MEAN_MOTION_DOT":4.7e-7,"MEAN_MOTION_DDOT":0},{"OBJECT_NAME":"ONEWEB-0682","OBJECT_ID":"2023-068J","EPOCH":"2026-01-03T07:03:08.643456","MEAN_MOTION":13.15549233,"ECCENTRICITY":0.00016109,"INCLINATION":87.9004,"RA_OF_ASC_NODE":292.1049,"ARG_OF_PERICENTER":93.5164,"MEAN_ANOMALY":266.6151,"EPHEMERIS_TYPE":0,"CLASSIFICATION_TYPE":"U","NORAD_CAT_ID":56718,"ELEMENT_SET_NO":999,"REV_AT_EPOCH":12777,"BSTAR":-2.9425723e-5,"MEAN_MOTION_DOT":2.0e-8,"MEAN_MOTION_DDOT":0},{"OBJECT_NAME":"ONEWEB-0683","OBJECT_ID":"2023-068K","EPOCH":"2026-01-03T05:44:25.487232","MEAN_MOTION":13.15547611,"ECCENTRICITY":0.00015047,"INCLINATION":87.9016,"RA_OF_ASC_NODE":292.1025,"ARG_OF_PERICENTER":82.3912,"MEAN_ANOMALY":277.739,"EPHEMERIS_TYPE":0,"CLASSIFICATION_TYPE":"U","NORAD_CAT_ID":56719,"ELEMENT_SET_NO":999,"REV_AT_EPOCH":12773,"BSTAR":0.00047322535,"MEAN_MOTION_DOT":1.91e-6,"MEAN_MOTION_DDOT":0},{"OBJECT_NAME":"ONEWEB-0684","OBJECT_ID":"2023-068L","EPOCH":"2026-01-03T05:55:49.028736","MEAN_MOTION":13.1554926,"ECCENTRICITY":0.00015754,"INCLINATION":87.9014,"RA_OF_ASC_NODE":292.095,"ARG_OF_PERICENTER":24.763,"MEAN_ANOMALY":335.3576,"EPHEMERIS_TYPE":0,"CLASSIFICATION_TYPE":"U","NORAD_CAT_ID":56720,"ELEMENT_SET_NO":999,"REV_AT_EPOCH":12756,"BSTAR":0.00064997932,"MEAN_MOTION_DOT":2.58e-6,"MEAN_MOTION_DDOT":0},{"OBJECT_NAME":"ONEWEB-0686","OBJECT_ID":"2023-068M","EPOCH":"2026-01-03T05:22:05.571840","MEAN_MOTION":13.15706976,"ECCENTRICITY":0.00011226,"INCLINATION":87.9032,"RA_OF_ASC_NODE":261.6588,"ARG_OF_PERICENTER":74.931,"MEAN_ANOMALY":285.1944,"EPHEMERIS_TYPE":0,"CLASSIFICATION_TYPE":"U","NORAD_CAT_ID":56721,"ELEMENT_SET_NO":999,"REV_AT_EPOCH":13000,"BSTAR":0.00041202098,"MEAN_MOTION_DOT":1.68e-6,"MEAN_MOTION_DDOT":0},{"OBJECT_NAME":"ONEWEB-0694","OBJECT_ID":"2023-068N","EPOCH":"2026-01-03T05:18:17.196768","MEAN_MOTION":13.16594783,"ECCENTRICITY":0.00013302,"INCLINATION":87.9053,"RA_OF_ASC_NODE":261.5882,"ARG_OF_PERICENTER":92.0316,"MEAN_ANOMALY":268.0967,"EPHEMERIS_TYPE":0,"CLASSIFICATION_TYPE":"U","NORAD_CAT_ID":56722,"ELEMENT_SET_NO":999,"REV_AT_EPOCH":13006,"BSTAR":0.00033199829,"MEAN_MOTION_DOT":1.4e-6,"MEAN_MOTION_DDOT":0},{"OBJECT_NAME":"ONEWEB-0696","OBJECT_ID":"2023-068P","EPOCH":"2026-01-03T06:43:44.391360","MEAN_MOTION":13.15548041,"ECCENTRICITY":0.00017225,"INCLINATION":87.9003,"RA_OF_ASC_NODE":292.1388,"ARG_OF_PERICENTER":63.2609,"MEAN_ANOMALY":296.8698,"EPHEMERIS_TYPE":0,"CLASSIFICATION_TYPE":"U","NORAD_CAT_ID":56723,"ELEMENT_SET_NO":999,"REV_AT_EPOCH":12768,"BSTAR":-5.3203437e-5,"MEAN_MOTION_DOT":-7.0e-8,"MEAN_MOTION_DDOT":0},{"OBJECT_NAME":"ONEWEB-0703","OBJECT_ID":"2023-068Q","EPOCH":"2026-01-03T06:57:26.038080","MEAN_MOTION":13.15547439,"ECCENTRICITY":0.00023583,"INCLINATION":87.9003,"RA_OF_ASC_NODE":292.1184,"ARG_OF_PERICENTER":53.9834,"MEAN_ANOMALY":306.1515,"EPHEMERIS_TYPE":0,"CLASSIFICATION_TYPE":"U","NORAD_CAT_ID":56724,"ELEMENT_SET_NO":999,"REV_AT_EPOCH":12757,"BSTAR":-9.0044872e-5,"MEAN_MOTION_DOT":-2.1e-7,"MEAN_MOTION_DDOT":0},{"OBJECT_NAME":"ONEWEB-0721","OBJECT_ID":"2023-068R","EPOCH":"2026-01-03T06:40:01.510464","MEAN_MOTION":13.22456612,"ECCENTRICITY":0.00014283,"INCLINATION":86.6816,"RA_OF_ASC_NODE":138.1333,"ARG_OF_PERICENTER":101.8604,"MEAN_ANOMALY":258.269,"EPHEMERIS_TYPE":0,"CLASSIFICATION_TYPE":"U","NORAD_CAT_ID":56725,"ELEMENT_SET_NO":999,"REV_AT_EPOCH":13614,"BSTAR":-2.0733772e-5,"MEAN_MOTION_DOT":6.0e-8,"MEAN_MOTION_DDOT":0},{"OBJECT_NAME":"ONEWEB-0015","OBJECT_ID":"2024-188A","EPOCH":"2026-01-03T03:02:48.763392","MEAN_MOTION":13.11418301,"ECCENTRICITY":0.00023657,"INCLINATION":87.8829,"RA_OF_ASC_NODE":53.9628,"ARG_OF_PERICENTER":105.9275,"MEAN_ANOMALY":254.2114,"EPHEMERIS_TYPE":0,"CLASSIFICATION_TYPE":"U","NORAD_CAT_ID":61594,"ELEMENT_SET_NO":999,"REV_AT_EPOCH":6282,"BSTAR":0.001850918,"MEAN_MOTION_DOT":6.69e-6,"MEAN_MOTION_DDOT":0},{"OBJECT_NAME":"ONEWEB-0687","OBJECT_ID":"2024-188B","EPOCH":"2026-01-03T03:29:35.779200","MEAN_MOTION":13.17648815,"ECCENTRICITY":0.00019945,"INCLINATION":87.9077,"RA_OF_ASC_NODE":38.7046,"ARG_OF_PERICENTER":111.9268,"MEAN_ANOMALY":248.2075,"EPHEMERIS_TYPE":0,"CLASSIFICATION_TYPE":"U","NORAD_CAT_ID":61595,"ELEMENT_SET_NO":999,"REV_AT_EPOCH":6416,"BSTAR":0.00010958354,"MEAN_MOTION_DOT":5.5e-7,"MEAN_MOTION_DDOT":0},{"OBJECT_NAME":"ONEWEB-0688","OBJECT_ID":"2024-188C","EPOCH":"2026-01-03T02:21:33.591744","MEAN_MOTION":13.17649673,"ECCENTRICITY":0.00029959,"INCLINATION":87.9077,"RA_OF_ASC_NODE":38.714,"ARG_OF_PERICENTER":103.9998,"MEAN_ANOMALY":256.1467,"EPHEMERIS_TYPE":0,"CLASSIFICATION_TYPE":"U","NORAD_CAT_ID":61596,"ELEMENT_SET_NO":999,"REV_AT_EPOCH":6415,"BSTAR":0.00028178007,"MEAN_MOTION_DOT":1.22e-6,"MEAN_MOTION_DDOT":0},{"OBJECT_NAME":"ONEWEB-0689","OBJECT_ID":"2024-188D","EPOCH":"2026-01-03T03:51:38.537280","MEAN_MOTION":13.11416702,"ECCENTRICITY":0.00016534,"INCLINATION":87.8829,"RA_OF_ASC_NODE":53.8901,"ARG_OF_PERICENTER":109.4233,"MEAN_ANOMALY":250.7074,"EPHEMERIS_TYPE":0,"CLASSIFICATION_TYPE":"U","NORAD_CAT_ID":61597,"ELEMENT_SET_NO":999,"REV_AT_EPOCH":6282,"BSTAR":-0.001510384,"MEAN_MOTION_DOT":-5.23e-6,"MEAN_MOTION_DDOT":0},{"OBJECT_NAME":"ONEWEB-0690","OBJECT_ID":"2024-188E","EPOCH":"2026-01-03T02:16:25.766688","MEAN_MOTION":13.11417201,"ECCENTRICITY":0.00019092,"INCLINATION":87.8845,"RA_OF_ASC_NODE":53.9214,"ARG_OF_PERICENTER":77.0701,"MEAN_ANOMALY":283.064,"EPHEMERIS_TYPE":0,"CLASSIFICATION_TYPE":"U","NORAD_CAT_ID":61598,"ELEMENT_SET_NO":999,"REV_AT_EPOCH":6299,"BSTAR":-0.0006315755,"MEAN_MOTION_DOT":-2.11e-6,"MEAN_MOTION_DDOT":0},{"OBJECT_NAME":"ONEWEB-0691","OBJECT_ID":"2024-188F","EPOCH":"2026-01-03T03:58:58.223424","MEAN_MOTION":13.11416697,"ECCENTRICITY":0.00021862,"INCLINATION":87.8846,"RA_OF_ASC_NODE":53.8045,"ARG_OF_PERICENTER":104.5331,"MEAN_ANOMALY":255.6039,"EPHEMERIS_TYPE":0,"CLASSIFICATION_TYPE":"U","NORAD_CAT_ID":61599,"ELEMENT_SET_NO":999,"REV_AT_EPOCH":6285,"BSTAR":-0.00093627473,"MEAN_MOTION_DOT":-3.19e-6,"MEAN_MOTION_DDOT":0},{"OBJECT_NAME":"ONEWEB-0692","OBJECT_ID":"2024-188G","EPOCH":"2026-01-03T04:28:16.354560","MEAN_MOTION":13.11418279,"ECCENTRICITY":8.133e-5,"INCLINATION":87.8831,"RA_OF_ASC_NODE":53.9446,"ARG_OF_PERICENTER":106.7809,"MEAN_ANOMALY":253.3408,"EPHEMERIS_TYPE":0,"CLASSIFICATION_TYPE":"U","NORAD_CAT_ID":61600,"ELEMENT_SET_NO":999,"REV_AT_EPOCH":6284,"BSTAR":0.00062549373,"MEAN_MOTION_DOT":2.34e-6,"MEAN_MOTION_DDOT":0},{"OBJECT_NAME":"ONEWEB-0693","OBJECT_ID":"2024-188H","EPOCH":"2026-01-03T02:38:32.900928","MEAN_MOTION":13.17651441,"ECCENTRICITY":0.00022737,"INCLINATION":87.908,"RA_OF_ASC_NODE":38.732,"ARG_OF_PERICENTER":75.8742,"MEAN_ANOMALY":284.2642,"EPHEMERIS_TYPE":0,"CLASSIFICATION_TYPE":"U","NORAD_CAT_ID":61601,"ELEMENT_SET_NO":999,"REV_AT_EPOCH":6414,"BSTAR":8.4005406e-5,"MEAN_MOTION_DOT":4.6e-7,"MEAN_MOTION_DDOT":0},{"OBJECT_NAME":"ONEWEB-0695","OBJECT_ID":"2024-188J","EPOCH":"2026-01-03T03:54:04.999104","MEAN_MOTION":13.11416476,"ECCENTRICITY":0.00013814,"INCLINATION":87.8831,"RA_OF_ASC_NODE":53.9386,"ARG_OF_PERICENTER":114.8908,"MEAN_ANOMALY":245.2364,"EPHEMERIS_TYPE":0,"CLASSIFICATION_TYPE":"U","NORAD_CAT_ID":61602,"ELEMENT_SET_NO":999,"REV_AT_EPOCH":6283,"BSTAR":-0.0013962166,"MEAN_MOTION_DOT":-4.82e-6,"MEAN_MOTION_DDOT":0},{"OBJECT_NAME":"ONEWEB-0697","OBJECT_ID":"2024-188K","EPOCH":"2026-01-03T04:40:29.246880","MEAN_MOTION":13.11417497,"ECCENTRICITY":9.256e-5,"INCLINATION":87.8831,"RA_OF_ASC_NODE":53.9224,"ARG_OF_PERICENTER":101.4202,"MEAN_ANOMALY":258.703,"EPHEMERIS_TYPE":0,"CLASSIFICATION_TYPE":"U","NORAD_CAT_ID":61603,"ELEMENT_SET_NO":999,"REV_AT_EPOCH":6282,"BSTAR":0.0015656216,"MEAN_MOTION_DOT":5.68e-6,"MEAN_MOTION_DDOT":0},{"OBJECT_NAME":"ONEWEB-0698","OBJECT_ID":"2024-188L","EPOCH":"2026-01-03T02:18:52.848864","MEAN_MOTION":13.11416597,"ECCENTRICITY":0.00011701,"INCLINATION":87.8832,"RA_OF_ASC_NODE":53.9575,"ARG_OF_PERICENTER":55.2442,"MEAN_ANOMALY":304.8796,"EPHEMERIS_TYPE":0,"CLASSIFICATION_TYPE":"U","NORAD_CAT_ID":61604,"ELEMENT_SET_NO":999,"REV_AT_EPOCH":6283,"BSTAR":-0.00070265596,"MEAN_MOTION_DOT":-2.36e-6,"MEAN_MOTION_DDOT":0},{"OBJECT_NAME":"ONEWEB-0699","OBJECT_ID":"2024-188M","EPOCH":"2026-01-03T04:57:59.582304","MEAN_MOTION":13.10372753,"ECCENTRICITY":0.00010085,"INCLINATION":87.8795,"RA_OF_ASC_NODE":69.1502,"ARG_OF_PERICENTER":100.5768,"MEAN_ANOMALY":259.5473,"EPHEMERIS_TYPE":0,"CLASSIFICATION_TYPE":"U","NORAD_CAT_ID":61605,"ELEMENT_SET_NO":999,"REV_AT_EPOCH":6170,"BSTAR":-0.0017511408,"MEAN_MOTION_DOT":-5.99e-6,"MEAN_MOTION_DDOT":0},{"OBJECT_NAME":"ONEWEB-0700","OBJECT_ID":"2024-188N","EPOCH":"2026-01-03T05:00:23.639616","MEAN_MOTION":13.10375122,"ECCENTRICITY":0.00013675,"INCLINATION":87.8807,"RA_OF_ASC_NODE":69.0375,"ARG_OF_PERICENTER":125.8014,"MEAN_ANOMALY":234.3241,"EPHEMERIS_TYPE":0,"CLASSIFICATION_TYPE":"U","NORAD_CAT_ID":61606,"ELEMENT_SET_NO":999,"REV_AT_EPOCH":6169,"BSTAR":-0.0018398527,"MEAN_MOTION_DOT":-6.3e-6,"MEAN_MOTION_DDOT":0}]
